start=new Date('2021-12-14T00:00:00.000Z').valueOf();
sats=[{"PERIOD":"95.592","ECCENTRICITY":"0.00024020","MEAN_MOTION_DOT":"0.00000976","EPOCH":"2021-12-13T21:11:32.998848","COUNTRY_CODE":"US","TLE_LINE1":"1 45401U 20019AT  21347.88302082  .00000976  00000-0  84450-4 0  9991","OBJECT_ID":"2020-019AT","GP_ID":"191658026","TIME_SYSTEM":"UTC","ELEMENT_SET_NO":"999","SITE":"AFETR","CLASSIFICATION_TYPE":"U","APOAPSIS":"548.894","PERIAPSIS":"545.567","INCLINATION":"53.0541","FILE":"3239585","SEMIMAJOR_AXIS":"6925.366","REF_FRAME":"TEME","LAUNCH_DATE":"2020-03-18","DECAY_DATE":null,"NORAD_CAT_ID":"45401","CENTER_NAME":"EARTH","EPHEMERIS_TYPE":"0","ARG_OF_PERICENTER":"66.8649","RA_OF_ASC_NODE":"240.5074","MEAN_ELEMENT_THEORY":"SGP4","MEAN_ANOMALY":"293.2593","MEAN_MOTION_DDOT":"0.0000000000000","OBJECT_NAME":"STARLINK-1256","RCS_SIZE":"LARGE","REV_AT_EPOCH":"9681","TLE_LINE2":"2 45401  53.0541 240.5074 0002402  66.8649 293.2593 15.06394447 96813","OBJECT_TYPE":"PAYLOAD","MEAN_MOTION":"15.06394447","BSTAR":"0.00008445000000"},{"BSTAR":"-0.00005319500000","RCS_SIZE":"LARGE","REV_AT_EPOCH":"9683","OBJECT_TYPE":"PAYLOAD","TLE_LINE2":"2 45402  53.0541 240.2198 0002519  67.7844 292.3412 15.06395584 96839","MEAN_MOTION":"15.06395584","MEAN_ANOMALY":"292.3412","MEAN_ELEMENT_THEORY":"SGP4","OBJECT_NAME":"STARLINK-1257","MEAN_MOTION_DDOT":"0.0000000000000","EPHEMERIS_TYPE":"0","RA_OF_ASC_NODE":"240.2198","ARG_OF_PERICENTER":"67.7844","NORAD_CAT_ID":"45402","CENTER_NAME":"EARTH","DECAY_DATE":null,"SEMIMAJOR_AXIS":"6925.362","REF_FRAME":"TEME","LAUNCH_DATE":"2020-03-18","FILE":"3239585","CLASSIFICATION_TYPE":"U","APOAPSIS":"548.972","PERIAPSIS":"545.483","INCLINATION":"53.0541","SITE":"AFETR","ELEMENT_SET_NO":"999","COUNTRY_CODE":"US","TLE_LINE1":"1 45402U 20019AU  21347.94568329 -.00001074  00000-0 -53195-4 0  9991","OBJECT_ID":"2020-019AU","GP_ID":"191658778","TIME_SYSTEM":"UTC","MEAN_MOTION_DOT":"-0.00001074","EPOCH":"2021-12-13T22:41:47.036256","PERIOD":"95.592","ECCENTRICITY":"0.00025190"},{"BSTAR":"-0.00003594400000","REV_AT_EPOCH":"9681","RCS_SIZE":"LARGE","TLE_LINE2":"2 45403  53.0548 240.4620 0002268  72.0380 288.0856 15.06393270 96816","OBJECT_TYPE":"PAYLOAD","MEAN_MOTION":"15.06393270","MEAN_ANOMALY":"288.0856","MEAN_ELEMENT_THEORY":"SGP4","MEAN_MOTION_DDOT":"0.0000000000000","OBJECT_NAME":"STARLINK-1259","EPHEMERIS_TYPE":"0","RA_OF_ASC_NODE":"240.4620","ARG_OF_PERICENTER":"72.0380","NORAD_CAT_ID":"45403","CENTER_NAME":"EARTH","DECAY_DATE":null,"SEMIMAJOR_AXIS":"6925.369","REF_FRAME":"TEME","LAUNCH_DATE":"2020-03-18","FILE":"3239585","CLASSIFICATION_TYPE":"U","PERIAPSIS":"545.664","APOAPSIS":"548.805","INCLINATION":"53.0548","SITE":"AFETR","ELEMENT_SET_NO":"999","COUNTRY_CODE":"US","TLE_LINE1":"1 45403U 20019AV  21347.89407983 -.00000817  00000-0 -35944-4 0  9990","OBJECT_ID":"2020-019AV","GP_ID":"191657025","TIME_SYSTEM":"UTC","MEAN_MOTION_DOT":"-0.00000817","EPOCH":"2021-12-13T21:27:28.497312","PERIOD":"95.593","ECCENTRICITY":"0.00022680"},{"INCLINATION":"53.0532","CLASSIFICATION_TYPE":"U","PERIAPSIS":"545.697","APOAPSIS":"548.786","SITE":"AFETR","ELEMENT_SET_NO":"999","GP_ID":"191657276","OBJECT_ID":"2020-019AW","TIME_SYSTEM":"UTC","COUNTRY_CODE":"US","TLE_LINE1":"1 45404U 20019AW  21347.90514368  .00000808  00000-0  73177-4 0  9997","MEAN_MOTION_DOT":"0.00000808","EPOCH":"2021-12-13T21:43:24.413952","ECCENTRICITY":"0.00022300","PERIOD":"95.593","BSTAR":"0.00007317700000","OBJECT_TYPE":"PAYLOAD","TLE_LINE2":"2 45404  53.0532 240.4002 0002230  61.9786 298.1428 15.06390930 96727","MEAN_MOTION":"15.06390930","REV_AT_EPOCH":"9672","RCS_SIZE":"LARGE","MEAN_MOTION_DDOT":"0.0000000000000","OBJECT_NAME":"STARLINK-1260","MEAN_ANOMALY":"298.1428","MEAN_ELEMENT_THEORY":"SGP4","EPHEMERIS_TYPE":"0","ARG_OF_PERICENTER":"61.9786","RA_OF_ASC_NODE":"240.4002","CENTER_NAME":"EARTH","NORAD_CAT_ID":"45404","DECAY_DATE":null,"REF_FRAME":"TEME","LAUNCH_DATE":"2020-03-18","SEMIMAJOR_AXIS":"6925.376","FILE":"3239585"},{"ECCENTRICITY":"0.00025970","PERIOD":"95.593","MEAN_MOTION_DOT":"-0.00000706","EPOCH":"2021-12-13T21:22:10.036416","OBJECT_ID":"2020-019AX","GP_ID":"191658526","TIME_SYSTEM":"UTC","COUNTRY_CODE":"US","TLE_LINE1":"1 45405U 20019AX  21347.89039394 -.00000706  00000-0 -28490-4 0  9994","ELEMENT_SET_NO":"999","SITE":"AFETR","INCLINATION":"53.0529","CLASSIFICATION_TYPE":"U","PERIAPSIS":"545.437","APOAPSIS":"549.034","FILE":"3239585","REF_FRAME":"TEME","LAUNCH_DATE":"2020-03-18","SEMIMAJOR_AXIS":"6925.370","DECAY_DATE":null,"CENTER_NAME":"EARTH","NORAD_CAT_ID":"45405","EPHEMERIS_TYPE":"0","ARG_OF_PERICENTER":"69.0732","RA_OF_ASC_NODE":"240.4779","MEAN_MOTION_DDOT":"0.0000000000000","OBJECT_NAME":"STARLINK-1263","MEAN_ELEMENT_THEORY":"SGP4","MEAN_ANOMALY":"291.0535","OBJECT_TYPE":"PAYLOAD","TLE_LINE2":"2 45405  53.0529 240.4779 0002597  69.0732 291.0535 15.06392989 96728","MEAN_MOTION":"15.06392989","RCS_SIZE":"LARGE","REV_AT_EPOCH":"9672","BSTAR":"-0.00002849000000"},{"OBJECT_NAME":"STARLINK-1265","MEAN_MOTION_DDOT":"0.0000000000000","MEAN_ANOMALY":"296.8123","MEAN_ELEMENT_THEORY":"SGP4","RA_OF_ASC_NODE":"240.4309","ARG_OF_PERICENTER":"63.3108","EPHEMERIS_TYPE":"0","BSTAR":"-0.00003442300000","MEAN_MOTION":"15.06399030","TLE_LINE2":"2 45406  53.0537 240.4309 0002363  63.3108 296.8123 15.06399030 96722","OBJECT_TYPE":"PAYLOAD","REV_AT_EPOCH":"9672","RCS_SIZE":"LARGE","LAUNCH_DATE":"2020-03-18","REF_FRAME":"TEME","SEMIMAJOR_AXIS":"6925.352","FILE":"3239585","CENTER_NAME":"EARTH","NORAD_CAT_ID":"45406","DECAY_DATE":null,"INCLINATION":"53.0537","PERIAPSIS":"545.580","APOAPSIS":"548.853","CLASSIFICATION_TYPE":"U","SITE":"AFETR","EPOCH":"2021-12-13T21:32:46.228992","MEAN_MOTION_DOT":"-0.00000795","ECCENTRICITY":"0.00023630","PERIOD":"95.592","ELEMENT_SET_NO":"999","TIME_SYSTEM":"UTC","OBJECT_ID":"2020-019AY","GP_ID":"191658279","TLE_LINE1":"1 45406U 20019AY  21347.89775728 -.00000795  00000-0 -34423-4 0  9994","COUNTRY_CODE":"US"},{"PERIAPSIS":"545.379","APOAPSIS":"549.035","CLASSIFICATION_TYPE":"U","INCLINATION":"53.0546","SITE":"AFETR","ELEMENT_SET_NO":"999","TLE_LINE1":"1 45407U 20019AZ  21347.91155966  .00000642  00000-0  62004-4 0  9999","COUNTRY_CODE":"US","TIME_SYSTEM":"UTC","OBJECT_ID":"2020-019AZ","GP_ID":"191657525","EPOCH":"2021-12-13T21:52:38.754624","MEAN_MOTION_DOT":"0.00000642","PERIOD":"95.592","ECCENTRICITY":"0.00026400","BSTAR":"0.00006200400000","RCS_SIZE":"LARGE","REV_AT_EPOCH":"9672","MEAN_MOTION":"15.06402096","TLE_LINE2":"2 45407  53.0546 240.3708 0002640  67.3535 292.7733 15.06402096 96720","OBJECT_TYPE":"PAYLOAD","MEAN_ANOMALY":"292.7733","MEAN_ELEMENT_THEORY":"SGP4","MEAN_MOTION_DDOT":"0.0000000000000","OBJECT_NAME":"STARLINK-1275","RA_OF_ASC_NODE":"240.3708","ARG_OF_PERICENTER":"67.3535","EPHEMERIS_TYPE":"0","NORAD_CAT_ID":"45407","CENTER_NAME":"EARTH","DECAY_DATE":null,"SEMIMAJOR_AXIS":"6925.342","LAUNCH_DATE":"2020-03-18","REF_FRAME":"TEME","FILE":"3239585"},{"SITE":"AFETR","PERIAPSIS":"545.549","APOAPSIS":"548.902","CLASSIFICATION_TYPE":"U","INCLINATION":"53.0532","PERIOD":"95.592","ECCENTRICITY":"0.00024210","EPOCH":"2021-12-13T19:00:10.452096","MEAN_MOTION_DOT":"-0.00000127","TLE_LINE1":"1 45408U 20019BA  21347.79178764 -.00000127  00000-0  10368-4 0  9992","COUNTRY_CODE":"US","TIME_SYSTEM":"UTC","OBJECT_ID":"2020-019BA","GP_ID":"191657776","ELEMENT_SET_NO":"999","ARG_OF_PERICENTER":"61.4155","RA_OF_ASC_NODE":"270.9130","EPHEMERIS_TYPE":"0","MEAN_ANOMALY":"298.7077","MEAN_ELEMENT_THEORY":"SGP4","OBJECT_NAME":"STARLINK-1278","MEAN_MOTION_DDOT":"0.0000000000000","RCS_SIZE":"LARGE","REV_AT_EPOCH":"9629","MEAN_MOTION":"15.06396009","TLE_LINE2":"2 45408  53.0532 270.9130 0002421  61.4155 298.7077 15.06396009 96299","OBJECT_TYPE":"PAYLOAD","BSTAR":"0.00001036800000","FILE":"3239585","SEMIMAJOR_AXIS":"6925.361","LAUNCH_DATE":"2020-03-18","REF_FRAME":"TEME","DECAY_DATE":null,"NORAD_CAT_ID":"45408","CENTER_NAME":"EARTH"},{"PERIOD":"95.592","ECCENTRICITY":"0.00023190","EPOCH":"2021-12-13T20:29:04.637760","MEAN_MOTION_DOT":"0.00000797","TLE_LINE1":"1 45409U 20019BB  21347.85352590  .00000797  00000-0  72394-4 0  9990","COUNTRY_CODE":"US","TIME_SYSTEM":"UTC","GP_ID":"191658027","OBJECT_ID":"2020-019BB","ELEMENT_SET_NO":"999","SITE":"AFETR","PERIAPSIS":"545.620","APOAPSIS":"548.832","CLASSIFICATION_TYPE":"U","INCLINATION":"53.0529","FILE":"3239585","SEMIMAJOR_AXIS":"6925.361","LAUNCH_DATE":"2020-03-18","REF_FRAME":"TEME","DECAY_DATE":null,"NORAD_CAT_ID":"45409","CENTER_NAME":"EARTH","RA_OF_ASC_NODE":"240.6420","ARG_OF_PERICENTER":"67.6836","EPHEMERIS_TYPE":"0","MEAN_ANOMALY":"292.4398","MEAN_ELEMENT_THEORY":"SGP4","MEAN_MOTION_DDOT":"0.0000000000000","OBJECT_NAME":"STARLINK-1282","RCS_SIZE":"LARGE","REV_AT_EPOCH":"9672","MEAN_MOTION":"15.06395959","OBJECT_TYPE":"PAYLOAD","TLE_LINE2":"2 45409  53.0529 240.6420 0002319  67.6836 292.4398 15.06395959 96720","BSTAR":"0.00007239400000"},{"EPOCH":"2021-12-13T21:40:55.772256","MEAN_MOTION_DOT":"-0.00001010","PERIOD":"91.328","ECCENTRICITY":"0.00012720","ELEMENT_SET_NO":"999","TLE_LINE1":"1 45410U 20019BC  21347.90342329 -.00001010  00000-0 -21721-5 0  9997","COUNTRY_CODE":"US","TIME_SYSTEM":"UTC","OBJECT_ID":"2020-019BC","GP_ID":"191658779","PERIAPSIS":"338.853","APOAPSIS":"340.562","CLASSIFICATION_TYPE":"U","INCLINATION":"53.0554","SITE":"AFETR","SEMIMAJOR_AXIS":"6717.843","LAUNCH_DATE":"2020-03-18","REF_FRAME":"TEME","FILE":"3239585","NORAD_CAT_ID":"45410","CENTER_NAME":"EARTH","DECAY_DATE":null,"MEAN_ELEMENT_THEORY":"SGP4","MEAN_ANOMALY":"293.4783","MEAN_MOTION_DDOT":"0.0000000000000","OBJECT_NAME":"STARLINK-1285","ARG_OF_PERICENTER":"66.6370","RA_OF_ASC_NODE":"164.0056","EPHEMERIS_TYPE":"0","BSTAR":"-0.00000217210000","REV_AT_EPOCH":"9778","RCS_SIZE":"LARGE","MEAN_MOTION":"15.76732550","TLE_LINE2":"2 45410  53.0554 164.0056 0001272  66.6370 293.4783 15.76732550 97788","OBJECT_TYPE":"PAYLOAD"}];
